{"fetched_at":"2026-07-20T07:40:17.151Z","source":"https://celestrak.org/NORAD/elements/gp.php?GROUP=kuiper&FORMAT=JSON","constellation":"kuiper","records":[{"OBJECT_NAME":"KUIPER-00114","OBJECT_ID":"2025-171V","EPOCH":"2026-07-19T17:55:32.248992","CLASSIFICATION_TYPE":"U","MEAN_MOTION":14.79941149,"ECCENTRICITY":0.0000382,"INCLINATION":51.9014,"RA_OF_ASC_NODE":311.6388,"ARG_OF_PERICENTER":124.088,"MEAN_ANOMALY":236.0119,"EPHEMERIS_TYPE":0,"NORAD_CAT_ID":65151,"ELEMENT_SET_NO":999,"REV_AT_EPOCH":5219,"BSTAR":0.00021517,"MEAN_MOTION_DOT":0.0000142,"MEAN_MOTION_DDOT":0},{"OBJECT_NAME":"KUIPER-00115","OBJECT_ID":"2025-171W","EPOCH":"2026-07-19T16:29:57.477984","CLASSIFICATION_TYPE":"U","MEAN_MOTION":14.79934372,"ECCENTRICITY":0.0000412,"INCLINATION":51.902,"RA_OF_ASC_NODE":304.4038,"ARG_OF_PERICENTER":118.7827,"MEAN_ANOMALY":241.3177,"EPHEMERIS_TYPE":0,"NORAD_CAT_ID":65152,"ELEMENT_SET_NO":999,"REV_AT_EPOCH":5229,"BSTAR":0.00020344,"MEAN_MOTION_DOT":0.0000133,"MEAN_MOTION_DDOT":0},{"OBJECT_NAME":"KUIPER-00116","OBJECT_ID":"2025-171X","EPOCH":"2026-07-19T17:10:48.753984","CLASSIFICATION_TYPE":"U","MEAN_MOTION":14.79919672,"ECCENTRICITY":0.0000618,"INCLINATION":51.9013,"RA_OF_ASC_NODE":309.3129,"ARG_OF_PERICENTER":94.4278,"MEAN_ANOMALY":265.6755,"EPHEMERIS_TYPE":0,"NORAD_CAT_ID":65153,"ELEMENT_SET_NO":999,"REV_AT_EPOCH":5222,"BSTAR":0.00021137,"MEAN_MOTION_DOT":0.0000139,"MEAN_MOTION_DDOT":0},{"OBJECT_NAME":"KUIPER-00118","OBJECT_ID":"2025-171Y","EPOCH":"2026-07-19T17:06:53.784000","CLASSIFICATION_TYPE":"U","MEAN_MOTION":14.79939968,"ECCENTRICITY":0.0000389,"INCLINATION":51.9009,"RA_OF_ASC_NODE":311.7748,"ARG_OF_PERICENTER":103.0739,"MEAN_ANOMALY":257.0267,"EPHEMERIS_TYPE":0,"NORAD_CAT_ID":65154,"ELEMENT_SET_NO":999,"REV_AT_EPOCH":5219,"BSTAR":0.00022151,"MEAN_MOTION_DOT":0.00001468,"MEAN_MOTION_DDOT":0},{"OBJECT_NAME":"KUIPER-00119","OBJECT_ID":"2025-171Z","EPOCH":"2026-07-19T15:49:04.404000","CLASSIFICATION_TYPE":"U","MEAN_MOTION":14.7995808,"ECCENTRICITY":0.0000175,"INCLINATION":51.9032,"RA_OF_ASC_NODE":299.6093,"ARG_OF_PERICENTER":268.6051,"MEAN_ANOMALY":91.4892,"EPHEMERIS_TYPE":0,"NORAD_CAT_ID":65155,"ELEMENT_SET_NO":999,"REV_AT_EPOCH":5235,"BSTAR":0.00057648,"MEAN_MOTION_DOT":0.00004179,"MEAN_MOTION_DDOT":0},{"OBJECT_NAME":"KUIPER-00120","OBJECT_ID":"2025-217A","EPOCH":"2026-07-19T08:32:11.480352","CLASSIFICATION_TYPE":"U","MEAN_MOTION":14.79938555,"ECCENTRICITY":0.00004946,"INCLINATION":51.8985,"RA_OF_ASC_NODE":190.828,"ARG_OF_PERICENTER":60.1579,"MEAN_ANOMALY":299.9432,"EPHEMERIS_TYPE":0,"NORAD_CAT_ID":65762,"ELEMENT_SET_NO":999,"REV_AT_EPOCH":4423,"BSTAR":0.00018616085,"MEAN_MOTION_DOT":0.00001199,"MEAN_MOTION_DDOT":0},{"OBJECT_NAME":"KUIPER-00132","OBJECT_ID":"2025-217B","EPOCH":"2026-07-19T15:47:33.603648","CLASSIFICATION_TYPE":"U","MEAN_MOTION":15.43413024,"ECCENTRICITY":0.0007409,"INCLINATION":51.8557,"RA_OF_ASC_NODE":80.9099,"ARG_OF_PERICENTER":80.788,"MEAN_ANOMALY":279.3947,"EPHEMERIS_TYPE":0,"NORAD_CAT_ID":65763,"ELEMENT_SET_NO":999,"REV_AT_EPOCH":4578,"BSTAR":0.00038878,"MEAN_MOTION_DOT":0.00017296,"MEAN_MOTION_DDOT":0},{"OBJECT_NAME":"KUIPER-00133","OBJECT_ID":"2025-217C","EPOCH":"2026-07-19T15:49:48.034272","CLASSIFICATION_TYPE":"U","MEAN_MOTION":14.79939634,"ECCENTRICITY":0.0000508,"INCLINATION":51.9029,"RA_OF_ASC_NODE":189.5953,"ARG_OF_PERICENTER":51.447,"MEAN_ANOMALY":308.6538,"EPHEMERIS_TYPE":0,"NORAD_CAT_ID":65764,"ELEMENT_SET_NO":999,"REV_AT_EPOCH":4428,"BSTAR":0.00017763,"MEAN_MOTION_DOT":0.00001133,"MEAN_MOTION_DDOT":0},{"OBJECT_NAME":"KUIPER-00139","OBJECT_ID":"2025-217D","EPOCH":"2026-07-19T02:05:05.156736","CLASSIFICATION_TYPE":"U","MEAN_MOTION":14.79925548,"ECCENTRICITY":0.00007591,"INCLINATION":51.8982,"RA_OF_ASC_NODE":159.584,"ARG_OF_PERICENTER":80.0937,"MEAN_ANOMALY":280.0111,"EPHEMERIS_TYPE":0,"NORAD_CAT_ID":65765,"ELEMENT_SET_NO":999,"REV_AT_EPOCH":4465,"BSTAR":0.00020491467,"MEAN_MOTION_DOT":0.00001341,"MEAN_MOTION_DDOT":0},{"OBJECT_NAME":"KUIPER-00142","OBJECT_ID":"2025-217E","EPOCH":"2026-07-19T15:28:19.557120","CLASSIFICATION_TYPE":"U","MEAN_MOTION":14.79924396,"ECCENTRICITY":0.0000648,"INCLINATION":51.8988,"RA_OF_ASC_NODE":172.078,"ARG_OF_PERICENTER":72.007,"MEAN_ANOMALY":288.0963,"EPHEMERIS_TYPE":0,"NORAD_CAT_ID":65766,"ELEMENT_SET_NO":999,"REV_AT_EPOCH":4452,"BSTAR":0.00018302,"MEAN_MOTION_DOT":0.00001174,"MEAN_MOTION_DDOT":0},{"OBJECT_NAME":"KUIPER-00145","OBJECT_ID":"2025-217F","EPOCH":"2026-07-19T08:55:36.456672","CLASSIFICATION_TYPE":"U","MEAN_MOTION":14.79926457,"ECCENTRICITY":0.00007328,"INCLINATION":51.8995,"RA_OF_ASC_NODE":175.8065,"ARG_OF_PERICENTER":65.7348,"MEAN_ANOMALY":294.3691,"EPHEMERIS_TYPE":0,"NORAD_CAT_ID":65767,"ELEMENT_SET_NO":999,"REV_AT_EPOCH":4444,"BSTAR":0.00019543319,"MEAN_MOTION_DOT":0.00001269,"MEAN_MOTION_DDOT":0},{"OBJECT_NAME":"KUIPER-00147","OBJECT_ID":"2025-217G","EPOCH":"2026-07-19T16:09:10.766592","CLASSIFICATION_TYPE":"U","MEAN_MOTION":14.79925422,"ECCENTRICITY":0.0000561,"INCLINATION":51.8979,"RA_OF_ASC_NODE":176.9547,"ARG_OF_PERICENTER":85.2484,"MEAN_ANOMALY":274.8543,"EPHEMERIS_TYPE":0,"NORAD_CAT_ID":65768,"ELEMENT_SET_NO":999,"REV_AT_EPOCH":4445,"BSTAR":0.00017665,"MEAN_MOTION_DOT":0.00001126,"MEAN_MOTION_DDOT":0},{"OBJECT_NAME":"KUIPER-00148","OBJECT_ID":"2025-217H","EPOCH":"2026-07-19T21:28:01.541856","CLASSIFICATION_TYPE":"U","MEAN_MOTION":14.79926702,"ECCENTRICITY":0.0000757,"INCLINATION":51.9043,"RA_OF_ASC_NODE":158.4904,"ARG_OF_PERICENTER":73.8215,"MEAN_ANOMALY":286.2831,"EPHEMERIS_TYPE":0,"NORAD_CAT_ID":65769,"ELEMENT_SET_NO":999,"REV_AT_EPOCH":4473,"BSTAR":-0.00022266,"MEAN_MOTION_DOT":-0.00001918,"MEAN_MOTION_DDOT":0},{"OBJECT_NAME":"KUIPER-00150","OBJECT_ID":"2025-217J","EPOCH":"2026-07-19T04:32:54.901248","CLASSIFICATION_TYPE":"U","MEAN_MOTION":14.79942474,"ECCENTRICITY":0.00006368,"INCLINATION":51.8999,"RA_OF_ASC_NODE":189.1271,"ARG_OF_PERICENTER":49.1855,"MEAN_ANOMALY":310.9163,"EPHEMERIS_TYPE":0,"NORAD_CAT_ID":65770,"ELEMENT_SET_NO":999,"REV_AT_EPOCH":4424,"BSTAR":0.00017956467,"MEAN_MOTION_DOT":0.00001148,"MEAN_MOTION_DDOT":0},{"OBJECT_NAME":"KUIPER-00151","OBJECT_ID":"2025-217K","EPOCH":"2026-07-19T04:44:35.809152","CLASSIFICATION_TYPE":"U","MEAN_MOTION":14.79921639,"ECCENTRICITY":0.00004437,"INCLINATION":51.9011,"RA_OF_ASC_NODE":181.5893,"ARG_OF_PERICENTER":77.3948,"MEAN_ANOMALY":282.7064,"EPHEMERIS_TYPE":0,"NORAD_CAT_ID":65771,"ELEMENT_SET_NO":999,"REV_AT_EPOCH":4435,"BSTAR":0.0001856648,"MEAN_MOTION_DOT":0.00001194,"MEAN_MOTION_DDOT":0},{"OBJECT_NAME":"KUIPER-00152","OBJECT_ID":"2025-217L","EPOCH":"2026-07-19T15:36:08.640864","CLASSIFICATION_TYPE":"U","MEAN_MOTION":14.79938849,"ECCENTRICITY":0.0000696,"INCLINATION":51.9003,"RA_OF_ASC_NODE":167.0729,"ARG_OF_PERICENTER":63.9457,"MEAN_ANOMALY":296.1577,"EPHEMERIS_TYPE":0,"NORAD_CAT_ID":65772,"ELEMENT_SET_NO":999,"REV_AT_EPOCH":4459,"BSTAR":0.0001916,"MEAN_MOTION_DOT":0.0000124,"MEAN_MOTION_DDOT":0}]}
