KUIPER-00114            
1 65151U 25171V   26200.74690103  .00001420  00000+0  21517-3 0  9999
2 65151  51.9014 311.6388 0000382 124.0880 236.0119 14.79941149 52194
KUIPER-00115            
1 65152U 25171W   26200.68747081  .00001330  00000+0  20344-3 0  9998
2 65152  51.9020 304.4038 0000412 118.7827 241.3177 14.79934372 52293
KUIPER-00116            
1 65153U 25171X   26200.71584206  .00001390  00000+0  21137-3 0  9998
2 65153  51.9013 309.3129 0000618  94.4278 265.6755 14.79919672 52229
KUIPER-00118            
1 65154U 25171Y   26200.71312250  .00001468  00000+0  22151-3 0  9990
2 65154  51.9009 311.7748 0000389 103.0739 257.0267 14.79939968 52192
KUIPER-00119            
1 65155U 25171Z   26200.65907875  .00004179  00000+0  57648-3 0  9998
2 65155  51.9032 299.6093 0000175 268.6051  91.4892 14.79958080 52352
KUIPER-00120            
1 65762U 25217A   26200.35568843  .00001199  00000+0  18616-3 0  9999
2 65762  51.8985 190.8280 0000494  60.1579 299.9432 14.79938555 44234
KUIPER-00132            
1 65763U 25217B   26200.65802782  .00017296  00000+0  38878-3 0  9993
2 65763  51.8557  80.9099 0007409  80.7880 279.3947 15.43413024 45788
KUIPER-00133            
1 65764U 25217C   26200.65958373  .00001133  00000+0  17763-3 0  9995
2 65764  51.9029 189.5953 0000508  51.4470 308.6538 14.79939634 44286
KUIPER-00139            
1 65765U 25217D   26200.08686524  .00001341  00000+0  20491-3 0  9992
2 65765  51.8982 159.5840 0000759  80.0937 280.0111 14.79925548 44650
KUIPER-00142            
1 65766U 25217E   26200.64467080  .00001174  00000+0  18302-3 0  9991
2 65766  51.8988 172.0780 0000648  72.0070 288.0963 14.79924396 44525
KUIPER-00145            
1 65767U 25217F   26200.37194973  .00001269  00000+0  19543-3 0  9993
2 65767  51.8995 175.8065 0000732  65.7348 294.3691 14.79926457 44441
KUIPER-00147            
1 65768U 25217G   26200.67304128  .00001126  00000+0  17665-3 0  9997
2 65768  51.8979 176.9547 0000561  85.2484 274.8543 14.79925422 44450
KUIPER-00148            
1 65769U 25217H   26200.89446229 -.00001918  00000+0 -22266-3 0  9995
2 65769  51.9043 158.4904 0000757  73.8215 286.2831 14.79926702 44738
KUIPER-00150            
1 65770U 25217J   26200.18952432  .00001148  00000+0  17956-3 0  9990
2 65770  51.8999 189.1271 0000636  49.1855 310.9163 14.79942474 44242
KUIPER-00151            
1 65771U 25217K   26200.19763668  .00001194  00000+0  18566-3 0  9992
2 65771  51.9011 181.5893 0000443  77.3948 282.7064 14.79921639 44355
KUIPER-00152            
1 65772U 25217L   26200.65010001  .00001240  00000+0  19160-3 0  9993
2 65772  51.9003 167.0729 0000696  63.9457 296.1577 14.79938849 44595
